STRIX-1                 
1 53815U 22113A   26194.81829003  .00014182  00000+0  34609-3 0  9994
2 53815  97.4485 257.3362 0005432 135.6749 224.4933 15.40962681211540
STRIX-3                 
1 59224U 24047A   26194.91300187  .00004760  00000+0  22529-3 0  9999
2 59224  97.6630 170.9921 0012137 339.6248  20.4500 15.19798385128809
STRIX-4                 
1 60352U 24137A   26194.86890287  .00009842  00000+0  30670-3 0  9994
2 60352  43.0149 133.1185 0015957 122.4745 237.7653 15.33284357108118
STRIX-2                 
1 62406U 24248A   26194.86180043  .00002702  00000+0  17383-3 0  9995
2 62406  97.6297 150.3537 0013578 240.6811 119.3062 15.09184714 85612
STRIX-5                 
1 65971U 25229A   26194.25885087  .00001737  00000+0  13353-3 0  9998
2 65971  41.9270 142.8064 0037681 225.1646 134.6115 15.04580758 40906
STRIX-6                 
1 68291U 26056A   26194.50420193  .00001171  00000+0  11319-3 0  9998
2 68291  50.2811 225.3777 0016623 344.5189  15.5250 15.00323936 17222
STRIX-7                 
1 69177U 26112A   26194.85114434  .00002091  00000+0  17550-3 0  9996
2 69177  44.9081  52.3880 0024566 200.3960 159.5932 15.01603020  7882
STRIX-8                 
1 69701U 26146A   26194.82469794  .00002512  00000+0  19008-3 0  9993
2 69701  41.9902  20.6848 0007342  13.1038 346.9979 15.04427522  2573
