{"fetched_at":"2026-07-14T06:35:08.986Z","source":"https://celestrak.org/NORAD/elements/gp.php?NAME=STRIX&FORMAT=JSON","constellation":"synspective","records":[{"OBJECT_NAME":"STRIX-1","OBJECT_ID":"2022-113A","EPOCH":"2026-07-13T19:38:20.258592","CLASSIFICATION_TYPE":"U","MEAN_MOTION":15.40962681,"ECCENTRICITY":0.0005432,"INCLINATION":97.4485,"RA_OF_ASC_NODE":257.3362,"ARG_OF_PERICENTER":135.6749,"MEAN_ANOMALY":224.4933,"EPHEMERIS_TYPE":0,"NORAD_CAT_ID":53815,"ELEMENT_SET_NO":999,"REV_AT_EPOCH":21154,"BSTAR":0.00034609,"MEAN_MOTION_DOT":0.00014182,"MEAN_MOTION_DDOT":0},{"OBJECT_NAME":"STRIX-3","OBJECT_ID":"2024-047A","EPOCH":"2026-07-13T21:54:43.361568","CLASSIFICATION_TYPE":"U","MEAN_MOTION":15.19798385,"ECCENTRICITY":0.0012137,"INCLINATION":97.663,"RA_OF_ASC_NODE":170.9921,"ARG_OF_PERICENTER":339.6248,"MEAN_ANOMALY":20.45,"EPHEMERIS_TYPE":0,"NORAD_CAT_ID":59224,"ELEMENT_SET_NO":999,"REV_AT_EPOCH":12880,"BSTAR":0.00022529,"MEAN_MOTION_DOT":0.0000476,"MEAN_MOTION_DDOT":0},{"OBJECT_NAME":"STRIX-4","OBJECT_ID":"2024-137A","EPOCH":"2026-07-13T20:51:13.207968","CLASSIFICATION_TYPE":"U","MEAN_MOTION":15.33284357,"ECCENTRICITY":0.0015957,"INCLINATION":43.0149,"RA_OF_ASC_NODE":133.1185,"ARG_OF_PERICENTER":122.4745,"MEAN_ANOMALY":237.7653,"EPHEMERIS_TYPE":0,"NORAD_CAT_ID":60352,"ELEMENT_SET_NO":999,"REV_AT_EPOCH":10811,"BSTAR":0.0003067,"MEAN_MOTION_DOT":0.00009842,"MEAN_MOTION_DDOT":0},{"OBJECT_NAME":"STRIX-2","OBJECT_ID":"2024-248A","EPOCH":"2026-07-13T20:40:59.557152","CLASSIFICATION_TYPE":"U","MEAN_MOTION":15.09184714,"ECCENTRICITY":0.0013578,"INCLINATION":97.6297,"RA_OF_ASC_NODE":150.3537,"ARG_OF_PERICENTER":240.6811,"MEAN_ANOMALY":119.3062,"EPHEMERIS_TYPE":0,"NORAD_CAT_ID":62406,"ELEMENT_SET_NO":999,"REV_AT_EPOCH":8561,"BSTAR":0.00017383,"MEAN_MOTION_DOT":0.00002702,"MEAN_MOTION_DDOT":0},{"OBJECT_NAME":"STRIX-5","OBJECT_ID":"2025-229A","EPOCH":"2026-07-13T06:12:44.715168","CLASSIFICATION_TYPE":"U","MEAN_MOTION":15.04580758,"ECCENTRICITY":0.0037681,"INCLINATION":41.927,"RA_OF_ASC_NODE":142.8064,"ARG_OF_PERICENTER":225.1646,"MEAN_ANOMALY":134.6115,"EPHEMERIS_TYPE":0,"NORAD_CAT_ID":65971,"ELEMENT_SET_NO":999,"REV_AT_EPOCH":4090,"BSTAR":0.00013353,"MEAN_MOTION_DOT":0.00001737,"MEAN_MOTION_DDOT":0},{"OBJECT_NAME":"STRIX-6","OBJECT_ID":"2026-056A","EPOCH":"2026-07-13T12:06:03.046752","CLASSIFICATION_TYPE":"U","MEAN_MOTION":15.00323936,"ECCENTRICITY":0.00166237,"INCLINATION":50.2811,"RA_OF_ASC_NODE":225.3777,"ARG_OF_PERICENTER":344.5189,"MEAN_ANOMALY":15.525,"EPHEMERIS_TYPE":0,"NORAD_CAT_ID":68291,"ELEMENT_SET_NO":999,"REV_AT_EPOCH":1722,"BSTAR":0.00011319297,"MEAN_MOTION_DOT":0.00001171,"MEAN_MOTION_DDOT":0},{"OBJECT_NAME":"STRIX-7","OBJECT_ID":"2026-112A","EPOCH":"2026-07-13T20:25:38.870976","CLASSIFICATION_TYPE":"U","MEAN_MOTION":15.0160302,"ECCENTRICITY":0.0024566,"INCLINATION":44.9081,"RA_OF_ASC_NODE":52.388,"ARG_OF_PERICENTER":200.396,"MEAN_ANOMALY":159.5932,"EPHEMERIS_TYPE":0,"NORAD_CAT_ID":69177,"ELEMENT_SET_NO":999,"REV_AT_EPOCH":788,"BSTAR":0.0001755,"MEAN_MOTION_DOT":0.00002091,"MEAN_MOTION_DDOT":0},{"OBJECT_NAME":"STRIX-8","OBJECT_ID":"2026-146A","EPOCH":"2026-07-13T19:47:33.902016","CLASSIFICATION_TYPE":"U","MEAN_MOTION":15.04427522,"ECCENTRICITY":0.0007342,"INCLINATION":41.9902,"RA_OF_ASC_NODE":20.6848,"ARG_OF_PERICENTER":13.1038,"MEAN_ANOMALY":346.9979,"EPHEMERIS_TYPE":0,"NORAD_CAT_ID":69701,"ELEMENT_SET_NO":999,"REV_AT_EPOCH":257,"BSTAR":0.00019008,"MEAN_MOTION_DOT":0.00002512,"MEAN_MOTION_DDOT":0}]}
